TRANSPORTER-12 OBJECT AZ
1 62656U 25009AZ  26068.71026235  .00016057  00000+0  54903-3 0  9991
2 62656  97.3981 151.9913 0000987  45.3581 314.7740 15.30349724 63792
STARLINK-34981          
1 65198U 25176A   26068.51778297  .00039635  00000+0  13439-2 0  9995
2 65198  53.1594 156.3923 0001668  67.0302 293.0875 15.30184332 33051
