[{"OBJECT_NAME":"TRANSPORTER-12 OBJECT AZ","OBJECT_ID":"2025-009AZ","EPOCH":"2026-03-09T17:02:46.667040","MEAN_MOTION":15.30349724,"ECCENTRICITY":9.87e-5,"INCLINATION":97.3981,"RA_OF_ASC_NODE":151.9913,"ARG_OF_PERICENTER":45.3581,"MEAN_ANOMALY":314.774,"EPHEMERIS_TYPE":0,"CLASSIFICATION_TYPE":"U","NORAD_CAT_ID":62656,"ELEMENT_SET_NO":999,"REV_AT_EPOCH":6379,"BSTAR":0.00054902545,"MEAN_MOTION_DOT":0.00016057,"MEAN_MOTION_DDOT":0},{"OBJECT_NAME":"STARLINK-34981","OBJECT_ID":"2025-176A","EPOCH":"2026-03-09T12:25:36.448608","MEAN_MOTION":15.30184332,"ECCENTRICITY":0.00016686,"INCLINATION":53.1594,"RA_OF_ASC_NODE":156.3923,"ARG_OF_PERICENTER":67.0302,"MEAN_ANOMALY":293.0875,"EPHEMERIS_TYPE":0,"CLASSIFICATION_TYPE":"U","NORAD_CAT_ID":65198,"ELEMENT_SET_NO":999,"REV_AT_EPOCH":3305,"BSTAR":0.001343856,"MEAN_MOTION_DOT":0.00039635,"MEAN_MOTION_DDOT":0}]
